STARLINK-35375          
1 66065U 25235H   25321.58996160  .00062660  00000+0  15652-2 0  9997
2 66065  53.1614  47.7219 0001469  91.1955 268.9218 15.39589859  5738
STARLINK-35179          
1 66066U 25235J   25322.00001156  .00059640  00000+0  14935-2 0  9995
2 66066  53.1610  45.6880 0001366  96.0813  69.6771 15.39534479  5894
STARLINK-35401          
1 66067U 25235K   25322.16670139  .00078562  00000+0  19564-2 0  9993
2 66067  53.1614  44.7984 0001421 104.4298 317.1068 15.39580030  5879
STARLINK-35422          
1 66068U 25235L   25322.16670139  .00097274  00000+0  24136-2 0  9996
2 66068  53.1602  44.6959 0000981 101.3215  11.7164 15.39585934  5875
STARLINK-35279          
1 66069U 25235M   25321.42555872  .00171752  00000+0  29657-2 0  9998
2 66069  53.1619  48.1138 0000731 262.2948  97.7979 15.49906525  5710
STARLINK-35295          
1 66070U 25235N   25321.61874323  .00098107  00000+0  17493-2 0  9993
2 66070  53.1614  47.1870 0002584  33.7367 326.3807 15.49318452  5743
STARLINK-35323          
1 66071U 25235P   25322.16670139 -.02042283  00000+0 -45820-1 0  9996
2 66071  53.1604  44.5771 0001498  91.0080  81.5804 15.46290951  5923
STARLINK-35299          
1 66072U 25235Q   25321.59427496  .00059039  00000+0  14750-2 0  9991
2 66072  53.1613  47.7477 0001393 101.0715 259.0447 15.39610950  5734
STARLINK-35274          
1 66073U 25235R   25321.65454646  .00072036  00000+0  17953-2 0  9996
2 66073  53.1612  47.4131 0001464  73.9306 286.1860 15.39596848  5740
STARLINK-35321          
1 66074U 25235S   25321.58498705  .00044011  00000+0  11048-2 0  9994
2 66074  53.1621  47.6884 0001129 105.6573 254.4556 15.39594306  5731
STARLINK-35131          
1 66075U 25235T   25322.16670139  .00079947  00000+0  19904-2 0  9998
2 66075  53.1613  44.7919 0001570 108.5175 314.8577 15.39578923  5922
STARLINK-34801          
1 66076U 25235U   25322.00001156  .00042086  00000+0  10572-2 0  9995
2 66076  53.1612  45.6812 0000839 125.0678  42.3885 15.39596040  5894
