CCSDS_OMM_VERS = 2.0
CREATION_DATE  = 
ORIGINATOR     = 

OBJECT_NAME    = STARLINK-35375
OBJECT_ID      = 2025-235H
CENTER_NAME    = EARTH
REF_FRAME      = TEME
TIME_SYSTEM    = UTC
MEAN_ELEMENT_THEORY = SGP/SGP4

EPOCH          = 2025-11-17T14:09:32.682240
MEAN_MOTION    = 15.39589859
ECCENTRICITY   = .00014694
INCLINATION    = 53.1614
RA_OF_ASC_NODE = 47.7219
ARG_OF_PERICENTER = 91.1955
MEAN_ANOMALY   = 268.9218

EPHEMERIS_TYPE = 0
CLASSIFICATION_TYPE = U
NORAD_CAT_ID   = 66065
ELEMENT_SET_NO = 999
REV_AT_EPOCH   = 573
BSTAR          = .15651681E-2
MEAN_MOTION_DOT = .6266E-3
MEAN_MOTION_DDOT = 0

CCSDS_OMM_VERS = 2.0
CREATION_DATE  = 
ORIGINATOR     = 

OBJECT_NAME    = STARLINK-35179
OBJECT_ID      = 2025-235J
CENTER_NAME    = EARTH
REF_FRAME      = TEME
TIME_SYSTEM    = UTC
MEAN_ELEMENT_THEORY = SGP/SGP4

EPOCH          = 2025-11-18T00:00:00.998784
MEAN_MOTION    = 15.39534479
ECCENTRICITY   = .0001366
INCLINATION    = 53.1610
RA_OF_ASC_NODE = 45.6880
ARG_OF_PERICENTER = 96.0813
MEAN_ANOMALY   = 69.6771

EPHEMERIS_TYPE = 0
CLASSIFICATION_TYPE = U
NORAD_CAT_ID   = 66066
ELEMENT_SET_NO = 999
REV_AT_EPOCH   = 589
BSTAR          = .14935E-2
MEAN_MOTION_DOT = .5964E-3
MEAN_MOTION_DDOT = 0

CCSDS_OMM_VERS = 2.0
CREATION_DATE  = 
ORIGINATOR     = 

OBJECT_NAME    = STARLINK-35401
OBJECT_ID      = 2025-235K
CENTER_NAME    = EARTH
REF_FRAME      = TEME
TIME_SYSTEM    = UTC
MEAN_ELEMENT_THEORY = SGP/SGP4

EPOCH          = 2025-11-18T04:00:03.000096
MEAN_MOTION    = 15.39580030
ECCENTRICITY   = .0001421
INCLINATION    = 53.1614
RA_OF_ASC_NODE = 44.7984
ARG_OF_PERICENTER = 104.4298
MEAN_ANOMALY   = 317.1068

EPHEMERIS_TYPE = 0
CLASSIFICATION_TYPE = U
NORAD_CAT_ID   = 66067
ELEMENT_SET_NO = 999
REV_AT_EPOCH   = 587
BSTAR          = .19564E-2
MEAN_MOTION_DOT = .78562E-3
MEAN_MOTION_DDOT = 0

CCSDS_OMM_VERS = 2.0
CREATION_DATE  = 
ORIGINATOR     = 

OBJECT_NAME    = STARLINK-35422
OBJECT_ID      = 2025-235L
CENTER_NAME    = EARTH
REF_FRAME      = TEME
TIME_SYSTEM    = UTC
MEAN_ELEMENT_THEORY = SGP/SGP4

EPOCH          = 2025-11-18T04:00:03.000096
MEAN_MOTION    = 15.39585934
ECCENTRICITY   = .0000981
INCLINATION    = 53.1602
RA_OF_ASC_NODE = 44.6959
ARG_OF_PERICENTER = 101.3215
MEAN_ANOMALY   = 11.7164

EPHEMERIS_TYPE = 0
CLASSIFICATION_TYPE = U
NORAD_CAT_ID   = 66068
ELEMENT_SET_NO = 999
REV_AT_EPOCH   = 587
BSTAR          = .24136E-2
MEAN_MOTION_DOT = .97274E-3
MEAN_MOTION_DDOT = 0

CCSDS_OMM_VERS = 2.0
CREATION_DATE  = 
ORIGINATOR     = 

OBJECT_NAME    = STARLINK-35279
OBJECT_ID      = 2025-235M
CENTER_NAME    = EARTH
REF_FRAME      = TEME
TIME_SYSTEM    = UTC
MEAN_ELEMENT_THEORY = SGP/SGP4

EPOCH          = 2025-11-17T10:12:48.273408
MEAN_MOTION    = 15.49906525
ECCENTRICITY   = .00007317
INCLINATION    = 53.1619
RA_OF_ASC_NODE = 48.1138
ARG_OF_PERICENTER = 262.2948
MEAN_ANOMALY   = 97.7979

EPHEMERIS_TYPE = 0
CLASSIFICATION_TYPE = U
NORAD_CAT_ID   = 66069
ELEMENT_SET_NO = 999
REV_AT_EPOCH   = 571
BSTAR          = .29657143E-2
MEAN_MOTION_DOT = .171752E-2
MEAN_MOTION_DDOT = 0

CCSDS_OMM_VERS = 2.0
CREATION_DATE  = 
ORIGINATOR     = 

OBJECT_NAME    = STARLINK-35295
OBJECT_ID      = 2025-235N
CENTER_NAME    = EARTH
REF_FRAME      = TEME
TIME_SYSTEM    = UTC
MEAN_ELEMENT_THEORY = SGP/SGP4

EPOCH          = 2025-11-17T14:50:59.415072
MEAN_MOTION    = 15.49318452
ECCENTRICITY   = .00025842
INCLINATION    = 53.1614
RA_OF_ASC_NODE = 47.1870
ARG_OF_PERICENTER = 33.7367
MEAN_ANOMALY   = 326.3807

EPHEMERIS_TYPE = 0
CLASSIFICATION_TYPE = U
NORAD_CAT_ID   = 66070
ELEMENT_SET_NO = 999
REV_AT_EPOCH   = 574
BSTAR          = .17492767E-2
MEAN_MOTION_DOT = .98107E-3
MEAN_MOTION_DDOT = 0

CCSDS_OMM_VERS = 2.0
CREATION_DATE  = 
ORIGINATOR     = 

OBJECT_NAME    = STARLINK-35323
OBJECT_ID      = 2025-235P
CENTER_NAME    = EARTH
REF_FRAME      = TEME
TIME_SYSTEM    = UTC
MEAN_ELEMENT_THEORY = SGP/SGP4

EPOCH          = 2025-11-18T04:00:03.000096
MEAN_MOTION    = 15.46290951
ECCENTRICITY   = .0001498
INCLINATION    = 53.1604
RA_OF_ASC_NODE = 44.5771
ARG_OF_PERICENTER = 91.0080
MEAN_ANOMALY   = 81.5804

EPHEMERIS_TYPE = 0
CLASSIFICATION_TYPE = U
NORAD_CAT_ID   = 66071
ELEMENT_SET_NO = 999
REV_AT_EPOCH   = 592
BSTAR          = -.4582E-1
MEAN_MOTION_DOT = -.2042283E-1
MEAN_MOTION_DDOT = 0

CCSDS_OMM_VERS = 2.0
CREATION_DATE  = 
ORIGINATOR     = 

OBJECT_NAME    = STARLINK-35299
OBJECT_ID      = 2025-235Q
CENTER_NAME    = EARTH
REF_FRAME      = TEME
TIME_SYSTEM    = UTC
MEAN_ELEMENT_THEORY = SGP/SGP4

EPOCH          = 2025-11-17T14:15:45.356544
MEAN_MOTION    = 15.39610950
ECCENTRICITY   = .00013935
INCLINATION    = 53.1613
RA_OF_ASC_NODE = 47.7477
ARG_OF_PERICENTER = 101.0715
MEAN_ANOMALY   = 259.0447

EPHEMERIS_TYPE = 0
CLASSIFICATION_TYPE = U
NORAD_CAT_ID   = 66072
ELEMENT_SET_NO = 999
REV_AT_EPOCH   = 573
BSTAR          = .14749876E-2
MEAN_MOTION_DOT = .59039E-3
MEAN_MOTION_DDOT = 0

CCSDS_OMM_VERS = 2.0
CREATION_DATE  = 
ORIGINATOR     = 

OBJECT_NAME    = STARLINK-35274
OBJECT_ID      = 2025-235R
CENTER_NAME    = EARTH
REF_FRAME      = TEME
TIME_SYSTEM    = UTC
MEAN_ELEMENT_THEORY = SGP/SGP4

EPOCH          = 2025-11-17T15:42:32.814144
MEAN_MOTION    = 15.39596848
ECCENTRICITY   = .0001464
INCLINATION    = 53.1612
RA_OF_ASC_NODE = 47.4131
ARG_OF_PERICENTER = 73.9306
MEAN_ANOMALY   = 286.1860

EPHEMERIS_TYPE = 0
CLASSIFICATION_TYPE = U
NORAD_CAT_ID   = 66073
ELEMENT_SET_NO = 999
REV_AT_EPOCH   = 574
BSTAR          = .17953E-2
MEAN_MOTION_DOT = .72036E-3
MEAN_MOTION_DDOT = 0

CCSDS_OMM_VERS = 2.0
CREATION_DATE  = 
ORIGINATOR     = 

OBJECT_NAME    = STARLINK-35321
OBJECT_ID      = 2025-235S
CENTER_NAME    = EARTH
REF_FRAME      = TEME
TIME_SYSTEM    = UTC
MEAN_ELEMENT_THEORY = SGP/SGP4

EPOCH          = 2025-11-17T14:02:22.881120
MEAN_MOTION    = 15.39594306
ECCENTRICITY   = .00011291
INCLINATION    = 53.1621
RA_OF_ASC_NODE = 47.6884
ARG_OF_PERICENTER = 105.6573
MEAN_ANOMALY   = 254.4556

EPHEMERIS_TYPE = 0
CLASSIFICATION_TYPE = U
NORAD_CAT_ID   = 66074
ELEMENT_SET_NO = 999
REV_AT_EPOCH   = 573
BSTAR          = .11048442E-2
MEAN_MOTION_DOT = .44011E-3
MEAN_MOTION_DDOT = 0

CCSDS_OMM_VERS = 2.0
CREATION_DATE  = 
ORIGINATOR     = 

OBJECT_NAME    = STARLINK-35131
OBJECT_ID      = 2025-235T
CENTER_NAME    = EARTH
REF_FRAME      = TEME
TIME_SYSTEM    = UTC
MEAN_ELEMENT_THEORY = SGP/SGP4

EPOCH          = 2025-11-18T04:00:03.000096
MEAN_MOTION    = 15.39578923
ECCENTRICITY   = .000157
INCLINATION    = 53.1613
RA_OF_ASC_NODE = 44.7919
ARG_OF_PERICENTER = 108.5175
MEAN_ANOMALY   = 314.8577

EPHEMERIS_TYPE = 0
CLASSIFICATION_TYPE = U
NORAD_CAT_ID   = 66075
ELEMENT_SET_NO = 999
REV_AT_EPOCH   = 592
BSTAR          = .19904E-2
MEAN_MOTION_DOT = .79947E-3
MEAN_MOTION_DDOT = 0

CCSDS_OMM_VERS = 2.0
CREATION_DATE  = 
ORIGINATOR     = 

OBJECT_NAME    = STARLINK-34801
OBJECT_ID      = 2025-235U
CENTER_NAME    = EARTH
REF_FRAME      = TEME
TIME_SYSTEM    = UTC
MEAN_ELEMENT_THEORY = SGP/SGP4

EPOCH          = 2025-11-18T00:00:00.998784
MEAN_MOTION    = 15.39596040
ECCENTRICITY   = .0000839
INCLINATION    = 53.1612
RA_OF_ASC_NODE = 45.6812
ARG_OF_PERICENTER = 125.0678
MEAN_ANOMALY   = 42.3885

EPHEMERIS_TYPE = 0
CLASSIFICATION_TYPE = U
NORAD_CAT_ID   = 66076
ELEMENT_SET_NO = 999
REV_AT_EPOCH   = 589
BSTAR          = .10572E-2
MEAN_MOTION_DOT = .42086E-3
MEAN_MOTION_DDOT = 0

